[{"OBJECT_NAME":"STARLINK-2680","OBJECT_ID":"2021-040E","EPOCH":"2026-03-09T12:29:47.513184","MEAN_MOTION":15.06411722,"ECCENTRICITY":0.00015513,"INCLINATION":53.0562,"RA_OF_ASC_NODE":147.7747,"ARG_OF_PERICENTER":101.3498,"MEAN_ANOMALY":258.7665,"EPHEMERIS_TYPE":0,"CLASSIFICATION_TYPE":"U","NORAD_CAT_ID":48432,"ELEMENT_SET_NO":999,"REV_AT_EPOCH":26708,"BSTAR":3.9815364e-5,"MEAN_MOTION_DOT":3.12e-6,"MEAN_MOTION_DDOT":0},{"OBJECT_NAME":"FALCON 9 DEB","OBJECT_ID":"2021-041BG","EPOCH":"2026-03-09T15:47:07.516032","MEAN_MOTION":15.0585876,"ECCENTRICITY":0.00124165,"INCLINATION":53.0346,"RA_OF_ASC_NODE":200.9185,"ARG_OF_PERICENTER":159.6872,"MEAN_ANOMALY":200.4613,"EPHEMERIS_TYPE":0,"CLASSIFICATION_TYPE":"U","NORAD_CAT_ID":48607,"ELEMENT_SET_NO":999,"REV_AT_EPOCH":26415,"BSTAR":0.00013916149,"MEAN_MOTION_DOT":1.762e-5,"MEAN_MOTION_DDOT":0}]
